format  = 'OEF1.1'       ! file format
rectype = 'ML'           ! record type (1L/ML)
refsys  = ECLM J2000     ! default reference system
END_OF_HEADER
mult_7
! Equinoctial elements: a, e*sin(LP), e*cos(LP), tan(i/2)*sin(LN), tan(i/2)*cos(LN), mean long.
 EQU   3.21819163665542E+00  0.135955183053006  0.131957936179264 -0.002458804043529 -0.000746281752502  11.4067710719422
 MJD     50349.49432639 TDT
 MAG  14.682  0.150
! RMS    1.52520E-03   2.57685E-03   7.45414E-03   1.14692E-05   1.63872E-05   2.56310E-01
! EIG   3.27747E-07   4.51038E-07   1.07239E-05   1.60746E-04   1.85845E-03   9.00350E-03
! WEA  -0.12195  -0.27924  -0.82094  -0.00126  -0.00134  -0.48292
 COV   2.326221265460704E-06  3.347136835144147E-06  7.106450242427546E-06
 COV   1.072131042660779E-08  1.016460138624803E-08  3.361253435362545E-04
 COV   6.640147495451897E-06  1.803779019122892E-05  2.755228866366569E-08
 COV   2.866416089631646E-08  6.603840341483937E-04  5.556422523296898E-05
 COV   8.526519258995845E-08  9.195989627396748E-08  1.783126950624816E-03
 COV   1.315414800086476E-10  1.339926130808314E-10  2.723045837610078E-06
 COV   2.685401171217694E-10  2.827616121592964E-06  6.569506304943114E-02
 NOR   2.435795922655402E+08 -3.941501370884805E+10  6.884798967183697E+08
 NOR   2.096415908407159E+09  5.747106690237077E+07  3.761873896796289E+08
 NOR   7.161568706344406E+12 -1.243830390854698E+11 -3.221478019792165E+09
 NOR   1.458655034818576E+10 -6.841273549673298E+10  2.175060899400238E+09
 NOR  -7.781050204853635E+09 -7.716732645342994E+08  1.188127606689902E+09
 NOR   4.895498970184715E+12  3.130476420602534E+11  1.646254306120160E+07
 NOR   2.877983312511928E+10 -1.401912414964749E+08  6.535346853849517E+08
mult_8
! Equinoctial elements: a, e*sin(LP), e*cos(LP), tan(i/2)*sin(LN), tan(i/2)*cos(LN), mean long.
 EQU   3.21807863964750E+00  0.135702714761151  0.131215490143488 -0.002459938973182 -0.000747493087374  11.3817436144800
 MJD     50349.49432639 TDT
 MAG  14.678  0.150
! RMS    1.56471E-03   2.58596E-03   7.48909E-03   1.14719E-05   1.64431E-05   2.57452E-01
! EIG   3.28332E-07   4.51261E-07   1.07470E-05   1.60918E-04   1.85545E-03   9.05230E-03
! WEA  -0.12834  -0.27878  -0.82032  -0.00125  -0.00134  -0.48259
 COV   2.448324848000065E-06  3.512194908051709E-06  7.622179120588021E-06
 COV   1.146216808893960E-08  1.101531022305714E-08  3.527444577636420E-04
 COV   6.687196877070740E-06  1.819128193216136E-05  2.766458529143657E-08
 COV   2.890610110508352E-08  6.656729252015807E-04  5.608646102896664E-05
 COV   8.568500025923781E-08  9.279687912061309E-08  1.800088822522267E-03
 COV   1.316052631327415E-10  1.346087526377251E-10  2.736874443154817E-06
 COV   2.703771461233232E-10  2.854407095856440E-06  6.628153085957657E-02
 NOR   2.430660063133592E+08 -3.929501443788886E+10  6.782857049267358E+08
 NOR   2.092510238301617E+09  5.740836027805540E+07  3.748407946733614E+08
 NOR   7.137898092845677E+12 -1.225364384119497E+11 -3.223674207658605E+09
 NOR   1.456204346278249E+10 -6.815021645073565E+10  2.118156818221256E+09
 NOR  -7.759165005383627E+09 -7.671478869120668E+08  1.169865603172251E+09
 NOR   4.890647938038559E+12  3.129291867316718E+11  1.654549602606178E+07
 NOR   2.874712317549624E+10 -1.398787562549114E+08  6.506793575458225E+08
mult_9
! Equinoctial elements: a, e*sin(LP), e*cos(LP), tan(i/2)*sin(LN), tan(i/2)*cos(LN), mean long.
 EQU   3.21795925483269E+00  0.135449364677513  0.130469819191247 -0.002461073783395 -0.000748709323319  11.3566041730871
 MJD     50349.49432639 TDT
 MAG  14.673  0.150
! RMS    1.60590E-03   2.59510E-03   7.52418E-03   1.14747E-05   1.64994E-05   2.58600E-01
! EIG   3.28918E-07   4.51483E-07   1.07701E-05   1.61080E-04   1.85251E-03   9.10166E-03
! WEA  -0.13467  -0.27831  -0.81967  -0.00124  -0.00134  -0.48223
 COV   2.578904764435257E-06  3.678665407275144E-06  8.143209838848120E-06
 COV   1.220433013840033E-08  1.187441857723592E-08  3.695381184562292E-04
 COV   6.734543454873292E-06  1.834594497482161E-05  2.777716783144783E-08
 COV   2.915009502188771E-08  6.710049269146814E-04  5.661324878379793E-05
 COV   8.610645468989164E-08  9.364173993720105E-08  1.817210367450521E-03
 COV   1.316686404554210E-10  1.352282934871607E-10  2.750773865075949E-06
 COV   2.722306404875667E-10  2.881471225158676E-06  6.687374586224075E-02
 NOR   2.425547578573684E+08 -3.917527940294884E+10  6.681156849792241E+08
 NOR   2.088614312270733E+09  5.734575512235275E+07  3.734971721195511E+08
 NOR   7.114254725047739E+12 -1.206946241806098E+11 -3.225863010116354E+09
 NOR   1.453752341644614E+10 -6.788805752894313E+10  2.061993378639349E+09
 NOR  -7.737317475453826E+09 -7.626219822884227E+08  1.151665688976605E+09
 NOR   4.885802966100999E+12  3.128107638749649E+11  1.662814852718585E+07
 NOR   2.871451611345834E+10 -1.395661079386161E+08  6.478287953721197E+08
mult_10
! Equinoctial elements: a, e*sin(LP), e*cos(LP), tan(i/2)*sin(LN), tan(i/2)*cos(LN), mean long.
 EQU   3.21783347642802E+00  0.135195115188792  0.129720845050191 -0.002462208574134 -0.000749930606913  11.3313506782897
 MJD     50349.49432639 TDT
 MAG  14.668  0.150
! RMS    1.64864E-03   2.60426E-03   7.55941E-03   1.14774E-05   1.65560E-05   2.59753E-01
! EIG   3.29507E-07   4.51706E-07   1.07934E-05   1.61232E-04   1.84962E-03   9.15157E-03
! WEA  -0.14093  -0.27782  -0.81900  -0.00124  -0.00134  -0.48187
 COV   2.718004833588167E-06  3.846567848971276E-06  8.669618560093991E-06
 COV   1.294784778502319E-08  1.274206847731992E-08  3.865090851631671E-04
 COV   6.782192309013155E-06  1.850180007962279E-05  2.789004389231669E-08
 COV   2.939618153600800E-08  6.763808017059565E-04  5.714467305255489E-05
 COV   8.652959592311445E-08  9.449463462079248E-08  1.834494529940247E-03
 COV   1.317316098017782E-10  1.358513114409477E-10  2.764745488247027E-06
 COV   2.741009493030084E-10  2.908813835794369E-06  6.747181469192511E-02
 NOR   2.420457918055384E+08 -3.905579745393491E+10  6.579691235108352E+08
 NOR   2.084727741685577E+09  5.728324523912080E+07  3.721563987034745E+08
 NOR   7.090636709905930E+12 -1.188574884727810E+11 -3.228044707002312E+09
 NOR   1.451298817549381E+10 -6.762623802478971E+10  2.006567975464445E+09
 NOR  -7.715505685457346E+09 -7.580952514409614E+08  1.133526810265002E+09
 NOR   4.880963606344104E+12  3.126923626366235E+11  1.671050727969506E+07
 NOR   2.868200877363260E+10 -1.392532710988798E+08  6.449827767288888E+08
mult_11
! Equinoctial elements: a, e*sin(LP), e*cos(LP), tan(i/2)*sin(LN), tan(i/2)*cos(LN), mean long.
 EQU   3.21770130525879E+00  0.134940227093212  0.128969310151051 -0.002463342208262 -0.000751155747141  11.3060087447347
 MJD     50349.49432639 TDT
 MAG  14.663  0.150
! RMS    1.69278E-03   2.61344E-03   7.59475E-03   1.14802E-05   1.66128E-05   2.60912E-01
! EIG   3.30098E-07   4.51928E-07   1.08166E-05   1.61374E-04   1.84681E-03   9.20197E-03
! WEA  -0.14711  -0.27733  -0.81830  -0.00123  -0.00133  -0.48149
 COV   2.865495667013742E-06  4.015725942406831E-06  9.200867259318024E-06
 COV   1.369191308476742E-08  1.361739139723868E-08  4.036403069678693E-04
 COV   6.830093671792514E-06  1.865868838089752E-05  2.800309272567310E-08
 COV   2.964411714276969E-08  6.817951392248955E-04  5.768020408784420E-05
 COV   8.695397950650579E-08  9.535473667607449E-08  1.851924381047354E-03
 COV   1.317941039071863E-10  1.364771743419260E-10  2.778774858777835E-06
 COV   2.759862670514347E-10  2.936408943901717E-06  6.807515857742512E-02
 NOR   2.415396815903315E+08 -3.893669660702815E+10  6.478566385496548E+08
 NOR   2.080854809647274E+09  5.722090386706479E+07  3.708199011957682E+08
 NOR   7.067068733191403E+12 -1.170269584662546E+11 -3.230217304206708E+09
 NOR   1.448846373190374E+10 -6.736503119351529E+10  1.951938449756994E+09
 NOR  -7.693752883959591E+09 -7.535724909742055E+08  1.115467985291914E+09
 NOR   4.876135038578619E+12  3.125741191686829E+11  1.679248732733526E+07
 NOR   2.864963659566620E+10 -1.389405752725562E+08  6.421442688021368E+08
mult_12
! Equinoctial elements: a, e*sin(LP), e*cos(LP), tan(i/2)*sin(LN), tan(i/2)*cos(LN), mean long.
 EQU   3.21756273615514E+00  0.134684236547336  0.128213475504386 -0.002464477307010 -0.000752387777206  11.2805324711853
 MJD     50349.49432639 TDT
 MAG  14.658  0.150
! RMS    1.73832E-03   2.62266E-03   7.63028E-03   1.14829E-05   1.66701E-05   2.62079E-01
! EIG   3.30692E-07   4.52151E-07   1.08401E-05   1.61507E-04   1.84405E-03   9.25298E-03
! WEA  -0.15322  -0.27682  -0.81759  -0.00123  -0.00133  -0.48109
 COV   3.021770781381176E-06  4.186550669280037E-06  9.738265662402811E-06
 COV   1.443830137871044E-08  1.450256366592274E-08  4.209741043684246E-04
 COV   6.878354174980176E-06  1.881697748669435E-05  2.811656087402471E-08
 COV   2.989449291483663E-08  6.872600654811806E-04  5.822115638056986E-05
 COV   8.738061774942522E-08  9.622419374490697E-08  1.869540859531765E-03
 COV   1.318562619911149E-10  1.371074153437726E-10  2.792892434677669E-06
 COV   2.778913308164681E-10  2.964322394999502E-06  6.868514084301520E-02
 NOR   2.410351413332837E+08 -3.881769120431983E+10  6.377580606191927E+08
 NOR   2.076985891492563E+09  5.715856816799273E+07  3.694844932579837E+08
 NOR   7.043496340337168E+12 -1.151994369483868E+11 -3.232386921893580E+09
 NOR   1.446389286298567E+10 -6.710383425412144E+10  1.898000034256091E+09
 NOR  -7.672007236913021E+09 -7.490444503974261E+08  1.097453552715711E+09
 NOR   4.871305659783510E+12  3.124557380998234E+11  1.687427434586132E+07
 NOR   2.861732066189201E+10 -1.386272946712338E+08  6.393067282191441E+08
